[{"OBJECT_NAME":"STARLINK-32272","OBJECT_ID":"2024-152R","EPOCH":"2026-03-09T22:00:01.999584","MEAN_MOTION":15.83714016,"ECCENTRICITY":0.00160774,"INCLINATION":53.1399,"RA_OF_ASC_NODE":256.2284,"ARG_OF_PERICENTER":264.0544,"MEAN_ANOMALY":352.9882,"EPHEMERIS_TYPE":0,"CLASSIFICATION_TYPE":"U","NORAD_CAT_ID":60735,"ELEMENT_SET_NO":999,"REV_AT_EPOCH":592,"BSTAR":0.0014299197,"MEAN_MOTION_DOT":0.00337099,"MEAN_MOTION_DDOT":0},{"OBJECT_NAME":"STARLINK-36652","OBJECT_ID":"2026-033U","EPOCH":"2026-03-09T22:25:07.238784","MEAN_MOTION":15.82132001,"ECCENTRICITY":0.00021076,"INCLINATION":42.998,"RA_OF_ASC_NODE":269.8447,"ARG_OF_PERICENTER":260.7607,"MEAN_ANOMALY":99.3026,"EPHEMERIS_TYPE":0,"CLASSIFICATION_TYPE":"U","NORAD_CAT_ID":67839,"ELEMENT_SET_NO":999,"REV_AT_EPOCH":466,"BSTAR":0.0015428253,"MEAN_MOTION_DOT":0.00339222,"MEAN_MOTION_DDOT":0}]
